IRIDIUM 26              
1 24903U 97043A   26009.54587312  .00000409  00000+0  13062-3 0  9990
2 24903  86.3944  23.8706 0002391  92.9880 267.1591 14.37354180486387
IRIDIUM 22              
1 24907U 97043E   26009.57789526  .00000365  00000+0  11875-3 0  9999
2 24907  86.3946  27.5744 0002289  88.6084 271.5375 14.36144741486399
DUMMY MASS 1            
1 24925U 97048A   26009.59452088  .00000423  00000+0  43821-4 0  9998
2 24925  86.3321  39.8109 0008494 123.1351 237.0690 14.87210427535802
DUMMY MASS 2            
1 24926U 97048B   26009.59116592  .00000422  00000+0  43981-4 0  9992
2 24926  86.3320  41.4583 0008935 133.6892 226.5075 14.86960897535579
IRIDIUM 28              
1 24948U 97051E   26009.64755624  .00000346  00000+0  10896-3 0  9994
2 24948  86.3933  54.6192 0002689  99.0388 261.1114 14.37588737483509
IRIDIUM 36              
1 24967U 97056C   26009.64832508  .00000436  00000+0  13818-3 0  9994
2 24967  86.3951  86.2493 0002421  93.6762 266.4713 14.37814287481889
